OBJECT_NAME,OBJECT_ID,EPOCH,MEAN_MOTION,ECCENTRICITY,INCLINATION,RA_OF_ASC_NODE,ARG_OF_PERICENTER,MEAN_ANOMALY,EPHEMERIS_TYPE,CLASSIFICATION_TYPE,NORAD_CAT_ID,ELEMENT_SET_NO,REV_AT_EPOCH,BSTAR,MEAN_MOTION_DOT,MEAN_MOTION_DDOT
STARLINK-35680,2025-270Y,2026-06-19T08:26:17.190240,15.27587012,.00014973,43.0012,202.0561,272.4158,87.6523,0,U,66610,999,3336,.42632452E-3,.1149E-3,0
STARLINK-35583,2025-270Z,2026-06-19T03:32:43.061568,15.27586474,.00013274,43.0005,203.1034,264.4149,95.6552,0,U,66611,999,3333,.5994091E-3,.16272E-3,0
STARLINK-36039,2025-270AA,2026-06-19T08:44:47.782752,15.27593118,.00020571,43.0003,202.1542,282.3637,77.6984,0,U,66612,999,3325,.57729693E-3,.15664E-3,0
STARLINK-36037,2025-270AB,2026-06-19T08:29:59.005824,15.27587765,.00018737,43.0007,202.0781,276.4654,83.5985,0,U,66613,999,3325,.38646958E-3,.1039E-3,0
STARLINK-36040,2025-270AC,2026-06-19T09:03:17.447328,15.27584138,.00011396,42.9996,202.2469,270.6392,89.4329,0,U,66614,999,3309,.39877543E-3,.10729E-3,0
STARLINK-35988,2025-270AD,2026-06-19T03:30:51.762816,15.27588019,.00014991,43.0008,203.0969,277.8468,82.2214,0,U,66615,999,3306,.50200656E-3,.13581E-3,0
STARLINK-35391,2025-270AE,2026-06-19T08:52:11.559936,15.27592552,.00013933,42.9990,202.1865,262.5425,97.5268,0,U,66616,999,3336,.33700535E-3,.9026E-4,0
STARLINK-35940,2025-271A,2026-06-18T23:38:40.720128,15.30197909,.00013503,53.1596,29.5610,103.2075,256.9076,0,U,66617,999,3307,.42056509E-3,.12116E-3,0
STARLINK-35970,2025-271B,2026-06-19T08:06:45.735840,15.30197109,.00012433,53.1606,27.4865,46.5331,313.5773,0,U,66618,999,3313,.70150828E-3,.20473E-3,0
STARLINK-35951,2025-271C,2026-06-19T07:35:01.198176,15.30202631,.00015041,53.1611,28.0624,84.3205,275.7967,0,U,66619,999,3312,.34191175E-3,.9781E-4,0
STARLINK-35936,2025-271D,2026-06-19T07:50:13.177824,15.30213535,.00013093,53.1609,28.1330,79.9984,280.1165,0,U,66620,999,3312,.62236475E-3,.18126E-3,0
STARLINK-35847,2025-271E,2026-06-19T07:38:03.738912,15.30203266,.0001275,53.1605,28.0692,95.4125,264.7021,0,U,66621,999,3312,.4742577E-3,.13714E-3,0
STARLINK-35950,2025-271F,2026-06-19T07:31:59.020320,15.30198731,.00013819,53.1607,28.0529,95.3799,264.7359,0,U,66622,999,3312,.38316967E-3,.11006E-3,0
STARLINK-35920,2025-271G,2026-06-19T17:39:36.639936,15.34416082,.0001132,53.1587,23.5892,89.3621,270.7511,0,U,66623,999,3322,.10126E-2,.34007E-3,0
STARLINK-35927,2025-271H,2026-06-19T08:08:17.081376,15.30216597,.00007407,53.1613,27.4997,59.8574,300.2500,0,U,66624,999,3313,.60395902E-3,.1758E-3,0
STARLINK-35929,2025-271J,2026-06-19T07:55:37.956288,15.34400937,.00013336,53.1601,25.3220,287.1814,72.9042,0,U,66625,999,3315,.90454137E-3,.3031E-3,0
STARLINK-35902,2025-271K,2026-06-19T07:47:10.741632,15.30208637,.00011456,53.1617,28.1198,85.9890,274.1242,0,U,66626,999,3312,.88750862E-3,.26025E-3,0
STARLINK-35904,2025-271L,2026-06-19T07:22:51.907872,15.30205699,.00010456,53.1591,28.0110,91.5696,268.5424,0,U,66627,999,3308,.48372331E-3,.13997E-3,0
STARLINK-35862,2025-271M,2026-06-19T06:58:10.919424,15.34425838,.00007643,53.1565,25.7797,331.1748,28.9212,0,U,66628,999,3315,.93890071E-3,.31505E-3,0
STARLINK-35949,2025-271P,2026-06-19T08:04:42.981312,15.34410491,.00006565,53.1601,25.3580,60.2058,299.9010,0,U,66630,999,3316,.62208089E-3,.20707E-3,0
STARLINK-35965,2025-271Q,2026-06-19T07:52:35.762880,15.34404649,.00014401,53.1608,25.3012,105.4524,254.6638,0,U,66631,999,3315,.69007356E-3,.23014E-3,0
STARLINK-35973,2025-271R,2026-06-19T17:45:40.214592,15.34410898,.0000924,53.1586,23.6089,61.3483,298.7612,0,U,66632,999,3317,.59331E-3,.1973E-3,0
STARLINK-35948,2025-271S,2026-06-19T17:48:42.006240,15.34411047,.0001403,53.1592,23.6302,108.1162,251.9994,0,U,66633,999,3322,.51465E-3,.17058E-3,0
STARLINK-35967,2025-271T,2026-06-19T17:30:30.794112,15.34405921,.0000972,53.1591,23.5460,61.3406,298.7694,0,U,66634,999,3317,.10664E-2,.35834E-3,0
STARLINK-35955,2025-271U,2026-06-16T23:01:29.424576,15.30233502,.00016354,53.1607,38.9578,70.0380,290.0797,0,U,66635,999,3276,.56261784E-3,.16358E-3,0
STARLINK-35968,2025-271V,2026-06-16T21:36:34.115040,15.30250628,.00013505,53.1613,39.2923,101.2730,258.8423,0,U,66636,999,3275,.87756304E-3,.25763E-3,0
STARLINK-35953,2025-271W,2026-06-19T17:51:43.614720,15.34425629,.000077,53.1580,23.6369,81.8361,278.2729,0,U,66637,999,3322,.99211E-3,.3332E-3,0
STARLINK-35972,2025-271X,2026-06-19T07:45:40.530528,15.30233125,.00016318,53.1617,28.1088,94.5951,265.5236,0,U,66638,999,3312,.79251577E-3,.2321E-3,0
STARLINK-35908,2025-271Y,2026-06-19T07:21:20.715264,15.30209168,.00011476,53.1591,28.0006,83.6988,276.4144,0,U,66639,999,3312,.79420441E-3,.23243E-3,0
STARLINK-35921,2025-271Z,2026-06-19T08:05:15.952416,15.30219286,.00012313,53.1616,27.4844,92.6711,267.4430,0,U,66640,999,3313,.57270809E-3,.16651E-3,0
STARLINK-35923,2025-271AA,2026-06-19T07:57:48.403008,15.30226616,.00001429,53.1610,28.1572,249.8959,110.2027,0,U,66641,999,3312,.8780467E-3,.25758E-3,0
STARLINK-35926,2025-271AB,2026-06-19T07:41:05.774208,15.30207832,.00012113,53.1610,28.0848,84.7204,275.3935,0,U,66642,999,3308,.2889036E-3,.8209E-4,0
STARLINK-35918,2025-271AC,2026-06-19T17:33:33.008256,15.34409214,.0001422,53.1580,23.5541,95.8335,264.2830,0,U,66643,999,3322,.83426E-3,.27924E-3,0
STARLINK-35938,2025-271AD,2026-06-16T21:53:16.070784,15.30235609,.00011988,53.1602,39.3649,83.4537,276.6600,0,U,66644,999,3275,.79462541E-3,.23275E-3,0
STARLINK-35867,2025-278A,2026-06-19T13:22:26.371488,15.27604562,.00013762,43.0027,259.4972,266.9984,93.0710,0,U,66791,999,3078,.1378519E-2,.37895E-3,0
STARLINK-35990,2025-278B,2026-06-19T07:29:37.752000,15.27586993,.00014333,43.0008,260.2306,259.1620,100.9071,0,U,66792,999,3075,.4089541E-3,.11011E-3,0
STARLINK-36051,2025-278C,2026-06-19T12:50:57.575040,15.27581191,.00007675,42.9997,259.3216,268.9525,91.1239,0,U,66793,999,3078,.4510298E-3,.1217E-3,0
STARLINK-36062,2025-278D,2026-06-19T17:42:40.564800,15.27587570,.0001256,42.9974,258.2665,262.9641,97.1068,0,U,66794,999,3081,.39267E-3,.10561E-3,0
STARLINK-36047,2025-278E,2026-06-19T12:49:08.312736,15.27589380,.00017654,42.9996,259.3174,282.7903,77.2752,0,U,66795,999,3078,.9328941E-3,.25506E-3,0
STARLINK-35964,2025-278F,2026-06-19T16:01:45.708096,15.27578426,.0001984,43.0027,243.5558,276.4037,83.6589,0,U,66796,999,3097,.72318E-3,.19691E-3,0
STARLINK-36099,2025-278G,2026-06-19T12:38:00.560832,15.27580006,.00007489,42.9962,259.2545,252.1556,107.9214,0,U,66797,999,3078,.41288181E-3,.11117E-3,0
STARLINK-36041,2025-278H,2026-06-19T13:03:54.444096,15.27590797,.00012808,42.9991,259.3901,274.1318,85.9387,0,U,66798,999,3078,.43167192E-3,.11639E-3,0
STARLINK-36044,2025-278J,2026-06-19T07:25:57.819072,15.27588826,.0001823,43.0031,260.2089,280.6441,79.4205,0,U,66799,999,3075,.84014149E-3,.22935E-3,0
STARLINK-35996,2025-278K,2026-06-19T07:18:31.245120,15.27602800,.00017979,42.9993,260.1650,252.3749,107.6907,0,U,66800,999,3075,.37263621E-3,.10013E-3,0
STARLINK-36080,2025-278L,2026-06-19T16:28:52.345344,15.27589945,.0001271,42.9985,258.7419,271.8406,88.2300,0,U,66801,999,3080,.3036E-3,.8104E-4,0
STARLINK-35604,2025-278M,2026-06-19T12:56:30.139872,15.27590375,.0001233,43.0006,259.3483,268.8667,91.2043,0,U,66802,999,3078,.35548234E-3,.9536E-4,0
STARLINK-35565,2025-278N,2026-06-19T13:05:44.856384,15.27587567,.00012094,42.9998,259.4023,270.1992,89.8721,0,U,66803,999,3078,.22046618E-4,.345E-5,0
STARLINK-36038,2025-278P,2026-06-19T12:17:39.346944,15.27573345,.00012734,42.9994,259.1515,259.4091,100.6617,0,U,66804,999,3078,.66070563E-3,.1796E-3,0
STARLINK-36049,2025-278Q,2026-06-19T13:09:27.580896,15.27585565,.0002085,42.9972,259.4183,286.1112,73.9510,0,U,66805,999,3078,.41390459E-3,.11147E-3,0
STARLINK-36069,2025-278R,2026-06-19T20:00:01.999008,15.27584446,.000146,43.0000,257.8614,277.1846,191.4447,0,U,66806,999,574,.29533E-4,.551E-5,0
STARLINK-36000,2025-278S,2026-06-19T06:06:34.808256,15.27588220,.00004431,42.9936,260.6526,197.7862,162.2974,0,U,66807,999,3074,.45761958E-3,.12355E-3,0
STARLINK-36071,2025-278T,2026-06-19T16:34:12.665568,15.27594112,.0001548,43.0009,257.9020,274.4632,85.6043,0,U,66808,999,3081,.47279E-3,.12776E-3,0
STARLINK-35979,2025-278U,2026-06-19T13:16:53.330592,15.27589796,.00017339,43.0030,259.4572,284.7572,75.3087,0,U,66809,999,3078,.70859795E-3,.19294E-3,0
STARLINK-36046,2025-278V,2026-06-19T12:54:39.235104,15.27587417,.00010241,42.9946,259.3357,271.0128,89.0606,0,U,66810,999,3078,.45994542E-3,.12419E-3,0
STARLINK-36045,2025-278W,2026-06-19T12:43:33.041856,15.27592293,.00016103,42.9999,259.2809,271.1773,88.8894,0,U,66811,999,3078,.48086602E-3,.12999E-3,0
STARLINK-36054,2025-278X,2026-06-19T17:22:18.962112,15.27600740,.0001543,42.9997,258.1521,271.6169,88.4506,0,U,66812,999,3081,.43428E-3,.11715E-3,0
STARLINK-36042,2025-278Y,2026-06-19T08:00:01.999872,15.27583621,.00013297,43.0014,260.0206,253.4168,258.2520,0,U,66813,999,588,.19630848E-3,.5144E-4,0
STARLINK-35984,2025-278Z,2026-06-19T07:24:04.507200,15.27607589,.00009329,42.9965,260.1891,203.5977,156.4832,0,U,66814,999,3075,.44216258E-3,.11935E-3,0
STARLINK-35985,2025-278AA,2026-06-19T12:34:19.771680,15.27593460,.00008171,42.9987,259.2292,253.8050,106.2712,0,U,66815,999,3199,.66065834E-3,.1797E-3,0
STARLINK-36098,2025-278AB,2026-06-19T07:11:07.118880,15.27595303,.00032805,43.0038,260.1226,271.5703,88.4773,0,U,66816,999,3075,-.83821544E-3,-.23271E-3,0
STARLINK-35995,2025-278AC,2026-06-19T12:28:44.975136,15.27594752,.00022368,43.0019,259.2068,283.1419,76.9183,0,U,66817,999,3078,.45611039E-3,.12316E-3,0
STARLINK-35994,2025-278AD,2026-06-19T12:32:26.960064,15.27594510,.00023619,43.0022,259.2295,285.9446,74.1146,0,U,66818,999,3078,.28633886E-3,.7629E-4,0
STARLINK-35989,2025-278AE,2026-06-19T12:45:24.238656,15.27588105,.00011245,42.9999,259.2857,274.4999,85.5724,0,U,66819,999,3078,.68331604E-3,.18593E-3,0
STARLINK-35966,2025-280A,2026-06-19T10:45:32.037408,14.98345269,.00027712,70.0016,78.0826,266.9346,93.1496,0,U,66821,999,3131,.21348098E-3,.2456E-4,0
